HYPERFIELD-1A           
1 60562U 24149CY  26068.76488211  .00008569  00000+0  30052-3 0  9998
2 60562  97.3842 149.5066 0003865 313.7844  46.3076 15.29681349 86836
STARLINK-35758          
1 66229U 25244Z   26068.70484127  .00017249  00000+0  59310-3 0  9990
2 66229  53.1600 229.7065 0000937  80.3876 279.7231 15.30203217 21664
